<?xml version="1.0" encoding="UTF-8"?>
<kml xmlns="http://www.opengis.net/kml/2.2" xmlns:atom="http://www.w3.org/2005/Atom">
	<Document>
		<name>Locations for Guincho e Reboque Rio de Janeiro</name>
		<open>1</open>
		<Folder>
			<atom:link href="https://guinchorj.com/" />
			<Placemark>
				<name><![CDATA[Guincho e Reboque Rio de Janeiro]]></name>
				<description><![CDATA[Confira nossos serviços de Guincho e Reboque no Rio de Janeiro com alta qualidade, tecnologia e atendimento de primeira linha para você e sua família. Chegamos em 15 min.]]></description>
				<address><![CDATA[Avenida Presidente Vargas 1120 — Centro - CEP 20071-002, Rio de Janeiro, Rio de Janeiro, 20071-002, BR]]></address>
				<phoneNumber><![CDATA[+55-21-95954-3043]]></phoneNumber>
				<atom:link href="https://guinchorj.com/"/>
				<LookAt>
					<latitude>-22.890783700455575</latitude>
					<longitude>-43.277235710258196</longitude>
					<altitude>0</altitude>
					<range></range>
					<tilt>0</tilt>
				</LookAt>
				<Point>
					<coordinates>-43.277235710258196,-22.890783700455575</coordinates>
				</Point>
			</Placemark>
		</Folder>
	</Document>
</kml>
<!-- XML Sitemap generated by Rank Math SEO Plugin (c) Rank Math - rankmath.com -->
